{
    "links": {
        "self": "http://www.neowsapp.com/rest/v1/neo/3347503?api_key=iIulBulltgU6a56xZRHN4H3l9WmuAYTsLGpBGhQ2"
    },
    "id": "3347503",
    "neo_reference_id": "3347503",
    "name": "(2006 TF)",
    "designation": "2006 TF",
    "nasa_jpl_url": "http://ssd.jpl.nasa.gov/sbdb.cgi?sstr=3347503",
    "absolute_magnitude_h": 25.9,
    "estimated_diameter": {
        "kilometers": {
            "estimated_diameter_min": 0.0175612318,
            "estimated_diameter_max": 0.0392681082
        },
        "meters": {
            "estimated_diameter_min": 17.561231848,
            "estimated_diameter_max": 39.2681081809
        },
        "miles": {
            "estimated_diameter_min": 0.0109120402,
            "estimated_diameter_max": 0.0244000636
        },
        "feet": {
            "estimated_diameter_min": 57.6155918963,
            "estimated_diameter_max": 128.8323800441
        }
    },
    "is_potentially_hazardous_asteroid": false,
    "close_approach_data": [
        {
            "close_approach_date": "2006-09-26",
            "close_approach_date_full": "2006-Sep-26 13:27",
            "epoch_date_close_approach": 1159277220000,
            "relative_velocity": {
                "kilometers_per_second": "7.4228670801",
                "kilometers_per_hour": "26722.3214884701",
                "miles_per_hour": "16604.2113715441"
            },
            "miss_distance": {
                "astronomical": "0.0240347061",
                "lunar": "9.3495006729",
                "kilometers": "3595540.838636007",
                "miles": "2234165.4774986166"
            },
            "orbiting_body": "Earth"
        }
    ],
    "orbital_data": {
        "orbit_id": "7",
        "orbit_determination_date": "2017-04-06 09:07:57",
        "first_observation_date": "2006-10-01",
        "last_observation_date": "2006-10-03",
        "data_arc_in_days": 2,
        "observations_used": 18,
        "orbit_uncertainty": "9",
        "minimum_orbit_intersection": ".0220816",
        "jupiter_tisserand_invariant": "3.320",
        "epoch_osculation": "2454011.5",
        "eccentricity": ".5649095732557571",
        "semi_major_axis": "2.35117631621351",
        "inclination": "3.509415900981655",
        "ascending_node_longitude": "187.8725627414771",
        "orbital_period": "1316.819425090435",
        "perihelion_distance": "1.022974306772293",
        "perihelion_argument": "182.3771285877218",
        "aphelion_distance": "3.679378325654727",
        "perihelion_time": "2454010.701363939828",
        "mean_anomaly": ".2183359207677049",
        "mean_motion": ".2733860035329266",
        "equinox": "J2000",
        "orbit_class": {
            "orbit_class_type": "AMO",
            "orbit_class_description": "Near-Earth asteroid orbits similar to that of 1221 Amor",
            "orbit_class_range": "1.017 AU < q (perihelion) < 1.3 AU"
        }
    },
    "is_sentry_object": false
}